OBJECT_NAME,OBJECT_ID,EPOCH,MEAN_MOTION,ECCENTRICITY,INCLINATION,RA_OF_ASC_NODE,ARG_OF_PERICENTER,MEAN_ANOMALY,EPHEMERIS_TYPE,CLASSIFICATION_TYPE,NORAD_CAT_ID,ELEMENT_SET_NO,REV_AT_EPOCH,BSTAR,MEAN_MOTION_DOT,MEAN_MOTION_DDOT
ONEWEB-0410,2022-012A,2026-06-04T01:55:39.065664,13.17647396,.00031887,87.9153,8.4636,85.9991,274.1505,0,U,51622,999,21197,-.23417793E-4,.4E-7,0
ONEWEB-0411,2022-012B,2026-06-04T02:36:20.703744,13.10378029,.00013813,87.8855,38.8706,95.1939,264.9346,0,U,51623,999,20757,.26377832E-3,.105E-5,0
ONEWEB-0415,2022-012C,2026-06-04T02:31:34.089024,13.10377644,.00016699,87.8854,38.8703,93.7204,266.4114,0,U,51624,999,20757,-.31403735E-3,-.97E-6,0
ONEWEB-0416,2022-012D,2026-06-04T02:48:21.369600,13.10387317,.00019082,87.8846,38.8864,94.9152,265.2193,0,U,51625,999,20761,.14004649E-2,.502E-5,0
ONEWEB-0422,2022-012E,2026-06-04T02:10:14.673504,13.17650008,.00014039,87.9147,8.4625,66.7619,293.3660,0,U,51626,999,21208,.91147063E-4,.48E-6,0
ONEWEB-0423,2022-012F,2026-06-04T02:00:32.368608,13.17649252,.00019434,87.9144,8.4705,80.5755,279.5596,0,U,51627,999,21197,.53143018E-4,.34E-6,0
ONEWEB-0425,2022-012G,2026-06-03T05:03:13.639392,13.10373275,.0002172,87.8842,39.0498,80.3479,279.7893,0,U,51628,999,20749,.17917E-2,.638E-5,0
ONEWEB-0428,2022-012H,2026-06-03T15:34:13.891296,13.10377738,.0001792,87.8850,38.9707,80.2358,279.8971,0,U,51629,999,20751,.19495E-3,.81E-6,0
ONEWEB-0431,2022-012J,2026-06-04T01:50:43.603584,13.10370677,.00012659,87.8841,38.8774,90.2809,269.8463,0,U,51630,999,20762,-.67448094E-3,-.223E-5,0
ONEWEB-0434,2022-012K,2026-06-03T14:17:57.748992,13.10373123,.00024851,87.8843,38.9978,83.2774,276.8636,0,U,51631,999,20754,.17225009E-2,.614E-5,0
ONEWEB-0435,2022-012L,2026-06-04T01:29:25.313856,13.10380938,.00023009,87.8838,38.8921,63.4385,296.6978,0,U,51632,999,20759,.48916463E-2,.1721E-4,0
ONEWEB-0436,2022-012M,2026-06-04T01:48:21.924000,13.17650139,.00016397,87.9151,8.4533,82.7903,277.3415,0,U,51633,999,21195,-.25568466E-4,.3E-7,0
ONEWEB-0438,2022-012N,2026-06-03T04:56:02.385024,13.10374572,.0002025,87.8836,39.0669,79.1330,281.0026,0,U,51634,999,20751,.21196E-2,.753E-5,0
ONEWEB-0439,2022-012P,2026-06-03T05:00:49.111200,13.10373878,.0001867,87.8840,39.0522,79.4540,280.6797,0,U,51635,999,20749,.19553E-2,.695E-5,0
ONEWEB-0442,2022-012Q,2026-06-04T01:37:26.283648,13.17648631,.00023873,87.9146,8.4882,90.0535,270.0870,0,U,51636,999,21194,-.60037563E-4,-.1E-6,0
ONEWEB-0443,2022-012R,2026-06-04T02:05:22.503264,13.17648494,.00019817,87.9141,8.4857,75.4222,284.7129,0,U,51637,999,21199,.43123929E-4,.3E-6,0
ONEWEB-0444,2022-012S,2026-06-03T15:46:12.109440,13.10376271,.0001873,87.8849,38.9608,76.3661,283.7675,0,U,51638,999,20756,.13137436E-2,.471E-5,0
ONEWEB-0445,2022-012T,2026-06-04T01:27:02.956896,13.10371243,.00017383,87.8848,38.8687,91.4440,268.6887,0,U,51639,999,20762,.13305598E-2,.477E-5,0
ONEWEB-0446,2022-012U,2026-06-04T02:43:31.637568,13.10377748,.00017856,87.8851,38.8871,86.3850,273.7482,0,U,51640,999,20761,.9743114E-3,.353E-5,0
ONEWEB-0448,2022-012V,2026-06-04T02:50:43.107072,13.10375231,.00018457,87.8844,38.8837,80.3648,279.7688,0,U,51641,999,20758,.16431153E-2,.586E-5,0
ONEWEB-0449,2022-012W,2026-06-03T04:58:25.916160,13.10374366,.0002314,87.8838,39.0496,83.4271,276.7120,0,U,51642,999,20747,.17515E-2,.624E-5,0
ONEWEB-0451,2022-012X,2026-06-04T01:43:31.442880,13.17649685,.00020912,87.9152,8.4509,82.9256,277.2113,0,U,51643,999,21193,.30052507E-4,.25E-6,0
ONEWEB-0452,2022-012Y,2026-06-04T01:41:04.730496,13.17650711,.00020239,87.9144,8.4890,77.6381,282.4977,0,U,51644,999,21194,-.4235782E-5,.11E-6,0
ONEWEB-0456,2022-012AA,2026-06-04T01:22:14.654784,13.10377623,.00016506,87.8853,38.8667,80.2422,279.8892,0,U,51646,999,20762,.16566902E-2,.591E-5,0
ONEWEB-0457,2022-012AB,2026-06-04T02:38:31.988544,13.10374757,.0001971,87.8844,38.8758,88.8912,271.2441,0,U,51647,999,20763,-.18060296E-4,.6E-7,0
ONEWEB-0458,2022-012AC,2026-06-04T01:19:56.808768,13.10334815,.00022069,87.8836,38.8726,82.1464,277.9914,0,U,51648,999,20758,.26897974E-1,.9407E-4,0
ONEWEB-0461,2022-012AD,2026-06-04T04:02:00.199104,13.17648826,.00018959,87.9150,8.4465,91.4949,268.6399,0,U,51649,999,21217,-.57757258E-3,-.211E-5,0
ONEWEB-0463,2022-012AE,2026-06-04T01:45:56.823840,13.17650766,.00018558,87.9143,8.4883,94.9627,265.1717,0,U,51650,999,21194,-.74489862E-4,-.16E-6,0
ONEWEB-0464,2022-012AF,2026-06-03T05:05:35.985120,13.10372921,.0001753,87.8840,39.0639,74.2865,285.8455,0,U,51651,999,20749,.193E-2,.686E-5,0
ONEWEB-0468,2022-012AG,2026-06-04T01:24:39.633984,13.10371197,.00016956,87.8839,38.8894,72.6952,287.4361,0,U,51652,999,20758,.15665282E-2,.56E-5,0
